ONEWEB-0233             
1 48795U 21045AE  24128.85372753  .00000211  00000+0  52688-3 0  9997
2 48795  87.9055  52.5327 0001768  83.7224 276.4108 13.15551398143019
ONEWEB-0190             
1 48796U 21045AF  24128.84977750  .00000099  00000+0  22935-3 0  9991
2 48796  87.9056  52.4967 0002039 110.7376 249.3973 13.15549127143084
ONEWEB-0236             
1 48797U 21045AG  24128.79115590  .00000075  00000+0  16453-3 0  9994
2 48797  87.9062  52.5006 0002018  82.6662 277.4698 13.15551179142961
ONEWEB-0248             
1 48798U 21045AH  24128.80382676 -.00000096  00000+0 -28837-3 0  9992
2 48798  87.9052  52.4923 0002499  96.2674 263.8741 13.15549461143123
ONEWEB-0225             
1 48799U 21045AJ  24128.82600904 -.00000064  00000+0 -20273-3 0  9993
2 48799  87.9053  52.4981 0002048  94.6305 265.5059 13.15550121143139
ONEWEB-0215             
1 48800U 21045AK  24128.79592421  .00000002  00000+0 -28617-4 0  9998
2 48800  87.9051  52.4804 0002353 103.7162 256.4230 13.15550094143001
ONEWEB-0216             
1 48801U 21045AL  24128.80540505 -.00000356  00000+0 -97925-3 0  9997
2 48801  87.9051  52.5190 0001614  82.8454 277.2860 13.15548689143019
ONEWEB-0239             
1 48802U 21045AM  24129.19045239 -.00000003  00000+0 -41336-4 0  9990
2 48802  87.9062  52.4145 0002643  99.5522 260.5907 13.15551175144242
